OBJECT_NAME,OBJECT_ID,EPOCH,MEAN_MOTION,ECCENTRICITY,INCLINATION,RA_OF_ASC_NODE,ARG_OF_PERICENTER,MEAN_ANOMALY,EPHEMERIS_TYPE,CLASSIFICATION_TYPE,NORAD_CAT_ID,ELEMENT_SET_NO,REV_AT_EPOCH,BSTAR,MEAN_MOTION_DOT,MEAN_MOTION_DDOT
STARLINK-35104,2025-210K,2026-06-14T20:50:04.499232,15.34394477,.00015773,53.1586,213.9904,62.7264,297.3899,0,U,65631,999,4262,.70733344E-3,.23593E-3,0
STARLINK-35117,2025-210L,2026-06-15T07:33:29.596032,15.30224344,.00015517,53.1578,213.9291,27.9165,332.1918,0,U,65632,999,4267,.53709038E-3,.15593E-3,0
STARLINK-35103,2025-210M,2026-06-14T10:02:35.198880,15.34394728,.00011534,53.1581,216.1606,72.6766,287.4363,0,U,65633,999,4256,.68660363E-3,.22889E-3,0
STARLINK-35123,2025-210N,2026-06-15T06:58:26.846400,15.31698346,.00012774,53.1578,213.7724,107.4435,252.6707,0,U,65634,999,4267,.44795429E-3,.1356E-3,0
STARLINK-35150,2025-210P,2026-06-15T07:27:25.258464,15.30162755,.00013237,53.1585,213.8962,99.0368,261.0783,0,U,65635,999,4267,.53127138E-3,.1539E-3,0
STARLINK-35209,2025-210Q,2026-06-14T20:19:54.074496,15.34400755,.00014797,53.1590,214.5684,83.4705,276.6466,0,U,65636,999,4262,.49995627E-3,.16553E-3,0
STARLINK-35147,2025-210R,2026-06-15T06:37:05.129184,15.34400550,.00013665,53.1567,212.2718,96.8521,263.2637,0,U,65637,999,4269,.49087599E-3,.16245E-3,0
STARLINK-35213,2025-210S,2026-06-15T06:31:01.716960,15.34399983,.0001185,53.1575,212.2389,74.3847,285.7287,0,U,65638,999,4269,.54936238E-3,.1823E-3,0
STARLINK-35127,2025-210T,2026-06-14T09:59:32.102592,15.34420246,.00013793,53.1580,216.1462,43.9489,316.1623,0,U,65639,999,4256,.39956925E-3,.13156E-3,0
STARLINK-35091,2025-210U,2026-06-15T07:01:19.357824,15.34386050,.00010035,53.1568,212.3693,85.0055,275.1063,0,U,65640,999,4269,.411281E-3,.13539E-3,0
STARLINK-35134,2025-210V,2026-06-14T20:47:01.799520,15.34418633,.00008035,53.1590,213.9755,301.7347,58.3577,0,U,65641,999,4263,.79378341E-3,.26554E-3,0
STARLINK-35109,2025-210W,2026-06-15T07:34:30.512352,15.34415503,.00011055,53.1588,211.8014,86.7338,273.3791,0,U,65642,999,4270,.49206308E-3,.16293E-3,0
STARLINK-35062,2025-210X,2026-06-15T07:31:29.906976,15.34388762,.00012853,53.1590,211.7893,81.7232,278.3916,0,U,65643,999,4270,.69182984E-3,.23062E-3,0
STARLINK-35141,2025-210Y,2026-06-15T07:25:18.572736,15.31715059,.00012054,53.1584,213.8861,81.9658,278.1481,0,U,65644,999,4267,.37507297E-3,.11297E-3,0
STARLINK-35237,2025-210Z,2026-06-15T07:36:30.864096,15.30198520,.00013838,53.1591,213.9347,81.3202,278.7956,0,U,65645,999,4267,.42713932E-3,.12312E-3,0
STARLINK-35183,2025-210AA,2026-06-15T07:22:51.214944,15.30177732,.00016087,53.1582,213.8744,91.1257,268.9928,0,U,65646,999,4267,.37979778E-3,.10898E-3,0
STARLINK-35202,2025-210AB,2026-06-15T07:30:48.849696,15.34397853,.0001375,53.1588,210.3592,80.2507,279.8651,0,U,65647,999,4272,.66219272E-3,.22061E-3,0
STARLINK-34868,2025-210AC,2026-06-15T06:49:12.292320,15.34387366,.00010352,53.1559,212.3104,81.6439,278.4681,0,U,65648,999,4269,.43293886E-3,.14273E-3,0
STARLINK-35079,2025-210AD,2026-06-15T07:12:11.716704,15.30201230,.00022436,53.1571,213.8267,133.6168,226.5020,0,U,65649,999,4267,.40445882E-3,.11639E-3,0
STARLINK-35328,2025-211A,2026-06-15T02:04:34.670496,15.05658000,.00026616,97.3586,209.0989,115.1972,244.9531,0,U,65652,999,4169,.16142859E-3,.2273E-4,0
STARLINK-34210,2025-211B,2026-06-15T01:56:36.322944,15.05642514,.00010447,97.3623,209.1096,56.9864,303.1463,0,U,65653,999,4169,-.31052425E-3,-.4534E-4,0
STARLINK-35227,2025-211C,2026-06-15T01:48:37.623744,15.05659641,.00017144,97.3576,209.1170,106.3418,253.7998,0,U,65654,999,4169,.24818169E-3,.3526E-4,0
STARLINK-35240,2025-211D,2026-06-15T02:00:35.329536,15.05661511,.00017087,97.3575,209.1038,114.2669,245.8737,0,U,65655,999,4169,.32047318E-3,.4571E-4,0
STARLINK-35344,2025-211E,2026-06-15T01:52:36.740064,15.05662217,.00013642,97.3557,209.1113,93.5883,266.5501,0,U,65656,999,4169,.34896238E-3,.4983E-4,0
STARLINK-34540,2025-211F,2026-06-15T01:44:38.401152,15.05662615,.00012919,97.3570,209.1212,129.9081,230.2260,0,U,65657,999,4169,.35199037E-3,.5027E-4,0
STARLINK-35282,2025-211G,2026-06-15T01:36:40.006944,15.05663210,.00014652,97.3564,209.1299,98.6758,261.4636,0,U,65658,999,4169,.29516906E-3,.4206E-4,0
STARLINK-35120,2025-211H,2026-06-15T03:16:21.311328,15.05651682,.00008721,97.3602,209.1899,102.9131,257.2194,0,U,65659,999,4170,-.16731331E-3,-.2471E-4,0
STARLINK-35246,2025-211J,2026-06-15T03:08:22.890336,15.05657297,.00016413,97.3564,209.1938,97.1601,262.9813,0,U,65660,999,4170,.20934574E-3,.2965E-4,0
STARLINK-35220,2025-211K,2026-06-15T03:04:23.679840,15.05660571,.00019138,97.3569,209.1981,91.6538,268.4908,0,U,65661,999,4170,.28744973E-3,.4094E-4,0
STARLINK-35176,2025-211L,2026-06-15T03:00:24.558336,15.05657938,.0002416,97.3559,209.2022,112.3714,247.7770,0,U,65662,999,4170,.21252218E-3,.3011E-4,0
