STARLINK-35104          
1 65631U 25210K   26165.86810763  .00023593  00000+0  70733-3 0  9994
2 65631  53.1586 213.9904 0001577  62.7264 297.3899 15.34394477 42624
STARLINK-35117          
1 65632U 25210L   26166.31492588  .00015593  00000+0  53709-3 0  9992
2 65632  53.1578 213.9291 0001551  27.9165 332.1918 15.30224344 42676
STARLINK-35103          
1 65633U 25210M   26165.41846295  .00022889  00000+0  68660-3 0  9999
2 65633  53.1581 216.1606 0001153  72.6766 287.4363 15.34394728 42560
STARLINK-35123          
1 65634U 25210N   26166.29058850  .00013560  00000+0  44795-3 0  9998
2 65634  53.1578 213.7724 0001277 107.4435 252.6707 15.31698346 42676
STARLINK-35150          
1 65635U 25210P   26166.31070901  .00015390  00000+0  53127-3 0  9995
2 65635  53.1585 213.8962 0001323  99.0368 261.0783 15.30162755 42670
STARLINK-35209          
1 65636U 25210Q   26165.84715364  .00016553  00000+0  49996-3 0  9993
2 65636  53.1590 214.5684 0001479  83.4705 276.6466 15.34400755 42624
STARLINK-35147          
1 65637U 25210R   26166.27575381  .00016245  00000+0  49088-3 0  9995
2 65637  53.1567 212.2718 0001366  96.8521 263.2637 15.34400550 42693
STARLINK-35213          
1 65638U 25210S   26166.27154765  .00018230  00000+0  54936-3 0  9999
2 65638  53.1575 212.2389 0001185  74.3847 285.7287 15.34399983 42695
STARLINK-35127          
1 65639U 25210T   26165.41634378  .00013156  00000+0  39957-3 0  9996
2 65639  53.1580 216.1462 0001379  43.9489 316.1623 15.34420246 42562
STARLINK-35091          
1 65640U 25210U   26166.29258516  .00013539  00000+0  41128-3 0  9999
2 65640  53.1568 212.3693 0001003  85.0055 275.1063 15.34386050 42694
STARLINK-35134          
1 65641U 25210V   26165.86599305  .00026554  00000+0  79378-3 0  9995
2 65641  53.1590 213.9755 0000803 301.7347  58.3577 15.34418633 42633
STARLINK-35109          
1 65642U 25210W   26166.31563093  .00016293  00000+0  49206-3 0  9998
2 65642  53.1588 211.8014 0001105  86.7338 273.3791 15.34415503 42700
STARLINK-35062          
1 65643U 25210X   26166.31354059  .00023062  00000+0  69183-3 0  9997
2 65643  53.1590 211.7893 0001285  81.7232 278.3916 15.34388762 42705
STARLINK-35141          
1 65644U 25210Y   26166.30924274  .00011297  00000+0  37507-3 0  9991
2 65644  53.1584 213.8861 0001205  81.9658 278.1481 15.31715059 42674
STARLINK-35237          
1 65645U 25210Z   26166.31702389  .00012312  00000+0  42714-3 0  9999
2 65645  53.1591 213.9347 0001383  81.3202 278.7956 15.30198520 42679
STARLINK-35183          
1 65646U 25210AA  26166.30753721  .00010898  00000+0  37980-3 0  9991
2 65646  53.1582 213.8744 0001608  91.1257 268.9928 15.30177732 42671
STARLINK-35202          
1 65647U 25210AB  26166.31306539  .00022061  00000+0  66219-3 0  9996
2 65647  53.1588 210.3592 0001375  80.2507 279.8651 15.34397853 42721
STARLINK-34868          
1 65648U 25210AC  26166.28417005  .00014273  00000+0  43294-3 0  9998
2 65648  53.1559 212.3104 0001035  81.6439 278.4681 15.34387366 42695
STARLINK-35079          
1 65649U 25210AD  26166.30013561  .00011639  00000+0  40446-3 0  9990
2 65649  53.1571 213.8267 0002243 133.6168 226.5020 15.30201230 42675
STARLINK-35328          
1 65652U 25211A   26166.08651239  .00002273  00000+0  16143-3 0  9991
2 65652  97.3586 209.0989 0002661 115.1972 244.9531 15.05658000 41690
STARLINK-34210          
1 65653U 25211B   26166.08097596 -.00004534  00000+0 -31052-3 0  9992
2 65653  97.3623 209.1096 0001044  56.9864 303.1463 15.05642514 41694
STARLINK-35227          
1 65654U 25211C   26166.07543546  .00003526  00000+0  24818-3 0  9993
2 65654  97.3576 209.1170 0001714 106.3418 253.7998 15.05659641 41696
STARLINK-35240          
1 65655U 25211D   26166.08374224  .00004571  00000+0  32047-3 0  9994
2 65655  97.3575 209.1038 0001708 114.2669 245.8737 15.05661511 41690
STARLINK-35344          
1 65656U 25211E   26166.07820301  .00004983  00000+0  34896-3 0  9997
2 65656  97.3557 209.1113 0001364  93.5883 266.5501 15.05662217 41693
STARLINK-34540          
1 65657U 25211F   26166.07266668  .00005027  00000+0  35199-3 0  9995
2 65657  97.3570 209.1212 0001291 129.9081 230.2260 15.05662615 41694
STARLINK-35282          
1 65658U 25211G   26166.06712971  .00004206  00000+0  29517-3 0  9993
2 65658  97.3564 209.1299 0001465  98.6758 261.4636 15.05663210 41694
STARLINK-35120          
1 65659U 25211H   26166.13635777 -.00002471  00000+0 -16731-3 0  9998
2 65659  97.3602 209.1899 0000872 102.9131 257.2194 15.05651682 41703
STARLINK-35246          
1 65660U 25211J   26166.13082049  .00002965  00000+0  20935-3 0  9995
2 65660  97.3564 209.1938 0001641  97.1601 262.9813 15.05657297 41707
STARLINK-35220          
1 65661U 25211K   26166.12805185  .00004094  00000+0  28745-3 0  9991
2 65661  97.3569 209.1981 0001913  91.6538 268.4908 15.05660571 41706
STARLINK-35176          
1 65662U 25211L   26166.12528424  .00003011  00000+0  21252-3 0  9994
2 65662  97.3559 209.2022 0002416 112.3714 247.7770 15.05657938 41709
